[{"OBJECT_NAME":"STARLINK-5658","OBJECT_ID":"2023-013H","EPOCH":"2026-03-09T01:45:35.531424","MEAN_MOTION":15.02534463,"ECCENTRICITY":0.00015027,"INCLINATION":43.0037,"RA_OF_ASC_NODE":303.9474,"ARG_OF_PERICENTER":260.8013,"MEAN_ANOMALY":99.2659,"EPHEMERIS_TYPE":0,"CLASSIFICATION_TYPE":"U","NORAD_CAT_ID":55338,"ELEMENT_SET_NO":999,"REV_AT_EPOCH":17161,"BSTAR":6.175238e-6,"MEAN_MOTION_DOT":-1.2e-6,"MEAN_MOTION_DDOT":0},{"OBJECT_NAME":"CZ-6A DEB","OBJECT_ID":"2024-140LD","EPOCH":"2026-03-09T20:28:55.674624","MEAN_MOTION":14.66900982,"ECCENTRICITY":0.01590307,"INCLINATION":88.6669,"RA_OF_ASC_NODE":257.8237,"ARG_OF_PERICENTER":143.6628,"MEAN_ANOMALY":217.5514,"EPHEMERIS_TYPE":0,"CLASSIFICATION_TYPE":"U","NORAD_CAT_ID":60898,"ELEMENT_SET_NO":999,"REV_AT_EPOCH":8295,"BSTAR":0.0020754891,"MEAN_MOTION_DOT":0.00014066,"MEAN_MOTION_DDOT":0}]
